COMMENT,ORIGINATOR,NORAD_CAT_ID,OBJECT_NAME,OBJECT_TYPE,CLASSIFICATION_TYPE,INTLDES,EPOCH,EPOCH_MICROSECONDS,MEAN_MOTION,ECCENTRICITY,INCLINATION,RA_OF_ASC_NODE,ARG_OF_PERICENTER,MEAN_ANOMALY,EPHEMERIS_TYPE,ELEMENT_SET_NO,REV_AT_EPOCH,BSTAR,MEAN_MOTION_DOT,MEAN_MOTION_DDOT,FILE,TLE_LINE0,TLE_LINE1,TLE_LINE2,OBJECT_ID,OBJECT_NUMBER,SEMIMAJOR_AXIS,PERIOD,APOGEE,PERIGEE,DECAYED,date
GENERATED VIA SPACETRACK.ORG API,18 SPCS,52182,SPACEBEE-128,PAYLOAD,U,22033AB,2023/2/4 18:57,170592,15.31728935,0.0007517,97.365,119.1435,279.1586,80.8805,0,999,4711,0.0011264,0.00034577,0,3772514,0 SPACEBEE-128,1 52182U 22033AB  23035.78962003  .00034577  00000-0  11264-2 0  9998,2 52182  97.3650 119.1435 0007517 279.1586  80.8805 15.31728935 47118,2022-033AB,52182,6848.791,94.011,475.804,465.508,1,2023/3/11
GENERATED VIA SPACETRACK.ORG API,18 SPCS,52182,SPACEBEE-128,PAYLOAD,U,22033AB,2023/2/5 10:37,612192,15.31773125,0.0007515,97.3649,119.7926,276.7303,83.3084,0,999,4719,0.0010584,0.00032521,0,3773657,0 SPACEBEE-128,1 52182U 22033AB  23036.44288903  .00032521  00000-0  10584-2 0  9993,2 52182  97.3649 119.7926 0007515 276.7303  83.3084 15.31773125 47191,2022-033AB,52182,6848.659,94.009,475.671,465.377,1,2023/3/12
GENERATED VIA SPACETRACK.ORG API,18 SPCS,52182,SPACEBEE-128,PAYLOAD,U,22033AB,2023/2/5 10:37,612192,15.31773125,0.0007515,97.3649,119.7926,276.7303,83.3084,0,999,4721,0.0010584,0.00032521,0,3773728,0 SPACEBEE-128,1 52182U 22033AB  23036.44288903  .00032521  00000-0  10584-2 0  9993,2 52182  97.3649 119.7926 0007515 276.7303  83.3084 15.31773125 47214,2022-033AB,52182,6848.659,94.009,475.671,465.377,1,2023/3/13
GENERATED VIA SPACETRACK.ORG API,18 SPCS,52182,SPACEBEE-128,PAYLOAD,U,22033AB,2023/2/5 16:54,131776,15.31792024,0.0007506,97.3648,120.0523,275.77,84.2686,0,999,4725,0.0010673,0.00032815,0,3774172,0 SPACEBEE-128,1 52182U 22033AB  23036.70419134  .00032815  00000-0  10673-2 0  9999,2 52182  97.3648 120.0523 0007506 275.7700  84.2686 15.31792024 47252,2022-033AB,52182,6848.603,94.008,475.608,465.327,1,2023/3/14
GENERATED VIA SPACETRACK.ORG API,18 SPCS,52182,SPACEBEE-128,PAYLOAD,U,22033AB,2023/2/6 5:26,228320,15.31837788,0.0007489,97.3647,120.5719,273.8294,86.2091,0,999,4731,0.0013445,0.00041464,0,3775152,0 SPACEBEE-128,1 52182U 22033AB  23037.22678505  .00041464  00000-0  13445-2 0  9996,2 52182  97.3647 120.5719 0007489 273.8294  86.2091 15.31837788 47316,2022-033AB,52182,6848.466,94.005,475.46,465.202,1,2023/3/15
GENERATED VIA SPACETRACK.ORG API,18 SPCS,52182,SPACEBEE-128,PAYLOAD,U,22033AB,2023/2/6 5:26,228320,15.31837788,0.0007489,97.3647,120.5719,273.8294,86.2091,0,999,4733,0.0013445,0.00041464,0,3775254,0 SPACEBEE-128,1 52182U 22033AB  23037.22678505  .00041464  00000-0  13445-2 0  9996,2 52182  97.3647 120.5719 0007489 273.8294  86.2091 15.31837788 47338,2022-033AB,52182,6848.466,94.005,475.46,465.202,1,2023/3/16
GENERATED VIA SPACETRACK.ORG API,18 SPCS,52182,SPACEBEE-128,PAYLOAD,U,22033AB,2023/2/6 17:59,30592,15.31883569,0.0007475,97.3646,121.0913,271.8344,88.2042,0,999,4741,0.0014201,0.00043876,0,3776034,0 SPACEBEE-128,1 52182U 22033AB  23037.74936378  .00043876  00000-0  14201-2 0  9998,2 52182  97.3646 121.0913 0007475 271.8344  88.2042 15.31883569 47413,2022-033AB,52182,6848.33,94.002,475.314,465.076,1,2023/3/17
GENERATED VIA SPACETRACK.ORG API,18 SPCS,52182,SPACEBEE-128,PAYLOAD,U,22033AB,2023/2/7 11:13,15168,15.31954183,0.0007486,97.3642,121.8056,269.0208,91.0176,0,999,4750,0.001625,0.00050371,0,3777145,0 SPACEBEE-128,1 52182U 22033AB  23038.46788212  .00050371  00000-0  16250-2 0  9994,2 52182  97.3642 121.8056 0007486 269.0208  91.0176 15.31954183 47506,2022-033AB,52182,6848.119,93.998,475.111,464.858,1,2023/3/18
GENERATED VIA SPACETRACK.ORG API,18 SPCS,52182,SPACEBEE-128,PAYLOAD,U,22033AB,2023/2/7 11:13,15168,15.31954183,0.0007486,97.3642,121.8056,269.0208,91.0176,0,999,4752,0.001625,0.00050371,0,3777208,0 SPACEBEE-128,1 52182U 22033AB  23038.46788212  .00050371  00000-0  16250-2 0  9994,2 52182  97.3642 121.8056 0007486 269.0208  91.0176 15.31954183 47528,2022-033AB,52182,6848.119,93.998,475.111,464.858,1,2023/3/19
GENERATED VIA SPACETRACK.ORG API,18 SPCS,52182,SPACEBEE-128,PAYLOAD,U,22033AB,2023/2/7 19:04,184672,15.31988079,0.0007507,97.3638,122.13,267.7588,92.2794,0,999,4757,0.00161,0.00049956,0,3777976,0 SPACEBEE-128,1 52182U 22033AB  23038.79446973  .00049956  00000-0  16100-2 0  9996,2 52182  97.3638 122.1300 0007507 267.7588  92.2794 15.31988079 47574,2022-033AB,52182,6848.018,93.996,475.024,464.743,1,2023/3/20
GENERATED VIA SPACETRACK.ORG API,18 SPCS,52182,SPACEBEE-128,PAYLOAD,U,22033AB,2023/2/8 4:28,874656,15.32032244,0.0007575,97.3636,122.5192,266.1776,93.8599,0,999,4763,0.001679,0.00052188,0,3780324,0 SPACEBEE-128,1 52182U 22033AB  23039.18636429  .00052188  00000-0  16790-2 0  9993,2 52182  97.3636 122.5192 0007575 266.1776  93.8599 15.32032244 47634,2022-033AB,52182,6847.887,93.993,474.939,464.564,1,2023/3/21
GENERATED VIA SPACETRACK.ORG API,18 SPCS,52182,SPACEBEE-128,PAYLOAD,U,22033AB,2023/2/8 18:34,536480,15.32106411,0.0007585,97.3633,123.1037,264.3991,95.6386,0,999,4770,0.001872,0.00058378,0,3780508,0 SPACEBEE-128,1 52182U 22033AB  23039.77418445  .00058378  00000-0  18720-2 0  9996,2 52182  97.3633 123.1037 0007585 264.3991  95.6386 15.32106411 47706,2022-033AB,52182,6847.666,93.988,474.725,464.337,1,2023/3/22
GENERATED VIA SPACETRACK.ORG API,18 SPCS,52182,SPACEBEE-128,PAYLOAD,U,22033AB,2023/2/8 18:34,536480,15.32106411,0.0007585,97.3633,123.1037,264.3991,95.6386,0,999,4772,0.001872,0.00058378,0,3780893,0 SPACEBEE-128,1 52182U 22033AB  23039.77418445  .00058378  00000-0  18720-2 0  9996,2 52182  97.3633 123.1037 0007585 264.3991  95.6386 15.32106411 47728,2022-033AB,52182,6847.666,93.988,474.725,464.337,1,2023/3/23
GENERATED VIA SPACETRACK.ORG API,18 SPCS,52182,SPACEBEE-128,PAYLOAD,U,22033AB,2023/2/9 5:33,399456,15.3216431,0.0007523,97.3633,123.5583,261.5764,98.4625,0,999,4779,0.0017904,0.00055912,0,3782313,0 SPACEBEE-128,1 52182U 22033AB  23040.23135879  .00055912  00000-0  17904-2 0  9990,2 52182  97.3633 123.5583 0007523 261.5764  98.4625 15.32164310 47793,2022-033AB,52182,6847.493,93.985,474.51,464.207,1,2023/3/24
GENERATED VIA SPACETRACK.ORG API,18 SPCS,52182,SPACEBEE-128,PAYLOAD,U,22033AB,2023/2/9 18:05,475680,15.32222266,0.0007531,97.3631,124.0783,260.3198,99.7193,0,999,4787,0.0019743,0.00061823,0,3783241,0 SPACEBEE-128,1 52182U 22033AB  23040.75382495  .00061823  00000-0  19743-2 0  9996,2 52182  97.3631 124.0783 0007531 260.3198  99.7193 15.32222266 47874,2022-033AB,52182,6847.321,93.981,474.342,464.029,1,2023/3/25
GENERATED VIA SPACETRACK.ORG API,18 SPCS,52182,SPACEBEE-128,PAYLOAD,U,22033AB,2023/2/9 22:47,886784,15.32244647,0.0007558,97.363,124.2728,259.2818,100.7573,0,999,4788,0.0020054,0.0006285,0,3783587,0 SPACEBEE-128,1 52182U 22033AB  23040.94974406  .00062850  00000-0  20054-2 0  9994,2 52182  97.3630 124.2728 0007558 259.2818 100.7573 15.32244647 47882,2022-033AB,52182,6847.254,93.98,474.294,463.944,1,2023/3/26
GENERATED VIA SPACETRACK.ORG API,18 SPCS,52182,SPACEBEE-128,PAYLOAD,U,22033AB,2023/2/10 3:29,991168,15.32273921,0.000758,97.363,124.4675,258.3894,101.6497,0,999,4793,0.0020586,0.00064594,0,3784184,0 SPACEBEE-128,1 52182U 22033AB  23041.14565962  .00064594  00000-0  20586-2 0  9997,2 52182  97.3630 124.4675 0007580 258.3894 101.6497 15.32273921 47932,2022-033AB,52182,6847.167,93.978,474.222,463.842,1,2023/3/27
GENERATED VIA SPACETRACK.ORG API,18 SPCS,52182,SPACEBEE-128,PAYLOAD,U,22033AB,2023/2/10 5:03,273184,15.32288256,0.0007566,97.3629,124.5325,258.1991,101.8402,0,999,4792,0.0022876,0.00071889,0,3784732,0 SPACEBEE-128,1 52182U 22033AB  23041.21096381  .00071889  00000-0  22876-2 0  9998,2 52182  97.3629 124.5325 0007566 258.1991 101.8402 15.32288256 47927,2022-033AB,52182,6847.124,93.977,474.17,463.808,1,2023/3/28
GENERATED VIA SPACETRACK.ORG API,18 SPCS,52182,SPACEBEE-128,PAYLOAD,U,22033AB,2023/2/10 5:03,273184,15.32288256,0.0007566,97.3629,124.5325,258.1991,101.8402,0,999,4794,0.0022876,0.00071889,0,3785071,0 SPACEBEE-128,1 52182U 22033AB  23041.21096381  .00071889  00000-0  22876-2 0  9998,2 52182  97.3629 124.5325 0007566 258.1991 101.8402 15.32288256 47949,2022-033AB,52182,6847.124,93.977,474.17,463.808,1,2023/3/29
GENERATED VIA SPACETRACK.ORG API,18 SPCS,52182,SPACEBEE-128,PAYLOAD,U,22033AB,2023/2/10 17:36,617792,15.32350165,0.0007607,97.3627,125.0526,257.4005,102.6386,0,999,4800,0.0019238,0.00060471,0,3785434,0 SPACEBEE-128,1 52182U 22033AB  23041.73338678  .00060471  00000-0  19238-2 0  9996,2 52182  97.3627 125.0526 0007607 257.4005 102.6386 15.32350165 48007,2022-033AB,52182,6846.94,93.973,474.013,463.596,1,2023/3/30
GENERATED VIA SPACETRACK.ORG API,18 SPCS,52182,SPACEBEE-128,PAYLOAD,U,22033AB,2023/2/11 10:50,160640,15.32447864,0.0007638,97.3626,125.7671,254.5703,105.4695,0,999,4811,0.0023534,0.00074353,0,3786002,0 SPACEBEE-128,1 52182U 22033AB  23042.45168010  .00074353  00000-0  23534-2 0  9995,2 52182  97.3626 125.7671 0007638 254.5703 105.4695 15.32447864 48110,2022-033AB,52182,6846.649,93.967,473.743,463.284,1,2023/3/31
GENERATED VIA SPACETRACK.ORG API,18 SPCS,52182,SPACEBEE-128,PAYLOAD,U,22033AB,2023/2/11 10:50,160640,15.32447864,0.0007638,97.3626,125.7671,254.5703,105.4695,0,999,4813,0.0023534,0.00074353,0,3786144,0 SPACEBEE-128,1 52182U 22033AB  23042.45168010  .00074353  00000-0  23534-2 0  9995,2 52182  97.3626 125.7671 0007638 254.5703 105.4695 15.32447864 48132,2022-033AB,52182,6846.649,93.967,473.743,463.284,1,2023/4/1
GENERATED VIA SPACETRACK.ORG API,18 SPCS,52182,SPACEBEE-128,PAYLOAD,U,22033AB,2023/2/11 17:06,669920,15.32482563,0.0007683,97.3624,126.0269,254.2336,105.8058,0,999,4817,0.002077,0.00065608,0,3786577,0 SPACEBEE-128,1 52182U 22033AB  23042.71286655  .00065608  00000-0  20770-2 0  9992,2 52182  97.3624 126.0269 0007683 254.2336 105.8058 15.32482563 48172,2022-033AB,52182,6846.545,93.965,473.67,463.15,1,2023/4/2
